SARSAT 7 (NOAA 15)      
1 25338U 98030A   22307.47299696  .00000181  00000+0  93772-4 0  9998
2 25338  98.6326 335.1180 0009376 249.9995 110.0176 14.26190585273087
GPS BIIR-08             
1 27663U 03005A   22306.62783299 -.00000025  00000+0  00000+0 0  9997
2 27663  55.4247 267.5713 0127975  41.3895 140.9753  2.00556335144787
GPS BIIR-11             
1 28190U 04009A   22306.26496782 -.00000048  00000+0  00000+0 0  9991
2 28190  55.9164 328.5999 0088612 127.2939 307.5177  2.00557137136410
GPS BIIR-13             
1 28474U 04045A   22306.46189681 -.00000100  00000+0  00000+0 0  9994
2 28474  55.3919  17.9203 0203613 280.4220 152.3461  2.00421193131902
SARSAT 10 (NOAA 18)     
1 28654U 05018A   22307.44289314  .00000224  00000+0  14474-3 0  9998
2 28654  98.9364  17.6816 0013340 300.2925  59.6926 14.12800408899693
GPS BIIR-14M            
1 28874U 05038A   22306.86409485 -.00000046  00000+0  00000+0 0  9991
2 28874  55.9768 326.0158 0140750 276.0096 259.8801  2.00566750125319
METEOSAT-9 (MSG-2)      
1 28912U 05049B   22306.48231616  .00000123  00000+0  00000+0 0  9998
2 28912   6.3287  65.3672 0001781 186.5355   9.1896  1.00275221 61773
GOES 13                 
1 29155U 06018A   22307.11507823  .00000031  00000+0  00000+0 0  9990
2 29155   0.9264  94.4437 0006667 132.2809 278.4351  1.00270033 60255
GPS BIIR-16M            
1 29601U 06052A   22306.18883463 -.00000019  00000+0  00000+0 0  9994
2 29601  55.4360 266.5327 0083561  75.0251 285.8860  2.00558345116879
GPS BIIR-17M            
1 32260U 07047A   22305.99464356  .00000073  00000+0  00000+0 0  9997
2 32260  53.3531 134.8417 0144908  65.7186 295.8454  2.00567468110278
GPS BIIR-18M            
1 32384U 07062A   22306.46201233 -.00000045  00000+0  00000+0 0  9997
2 32384  56.1002 326.8113 0020107 147.4160 317.6701  2.00569406108986
SARSAT 12 (NOAA 19)     
1 33591U 09005A   22307.53090698  .00000240  00000+0  15454-3 0  9996
2 33591  99.1336 344.4999 0014360 154.2081 205.9809 14.12631777708086
GOES 14                 
1 35491U 09033A   22307.49893490 -.00000102  00000+0  00000+0 0  9999
2 35491   0.2721 265.4574 0018296 313.4557 259.2092  1.00272191 48906
GOES 15                 
1 36411U 10008A   22307.52242093  .00000047  00000+0  00000+0 0  9994
2 36411   0.2310 279.7057 0003854 266.3870 276.3411  1.00272866 46402
GPS BIIF-2              
1 37753U 11036A   22306.58260207 -.00000099  00000+0  00000+0 0  9996
2 37753  56.6607  23.3343 0118319  53.4011 287.9363  2.00566012 82743
GSAT0101 (GALILEO-PFM)  
1 37846U 11060A   22306.09963905 -.00000098  00000+0  00000+0 0  9996
2 37846  57.0404  17.6009 0000608 339.8715  20.1682  1.70474772 68566
GSAT0102 (GALILEO-FM2)  
1 37847U 11060B   22306.66969883 -.00000100  00000+0  00000+0 0  9995
2 37847  57.0414  17.5851 0002548 298.4678  98.2717  1.70475168 68582
LUCH 5A                 
1 37951U 11074B   22307.31486674 -.00000051  00000+0  00000+0 0  9996
2 37951   5.3631  95.0476 0003133  99.0485 128.7501  1.00269245 39938
METEOSAT-10 (MSG-3)     
1 38552U 12035B   22306.44980073  .00000056  00000+0  00000+0 0  9991
2 38552   1.7442  48.1317 0001286 153.8222  11.1764  1.00278612 37598
SARSAT 13 (METOP-B)     
1 38771U 12049A   22307.49309803  .00000145  00000+0  86406-4 0  9999
2 38771  98.7130   5.2583 0001043  58.4841 313.1925 14.21489087525489
GPS BIIF-3              
1 38833U 12053A   22306.09411328 -.00000008  00000+0  00000+0 0  9994
2 38833  53.5195 197.7175 0131547  48.3298 312.8524  2.00563399 72907
GSAT0103 (GALILEO-FM3)  
1 38857U 12055A   22306.13869129  .00000073  00000+0  00000+0 0  9994
2 38857  55.1769 137.9124 0001882 232.3100 127.7363  1.70473610 62458
GSAT0104 (GALILEO-FM4)  
1 38858U 12055B   22306.10858491  .00000073  00000+0  00000+0 0  9992
2 38858  55.1773 137.9146 0001524 136.9811 223.0942  1.70473888 62459
GPS BIIF-4              
1 39166U 13023A   22306.45088681 -.00000041  00000+0  00000+0 0  9991
2 39166  55.5999 322.3508 0105664  38.1455 322.6376  2.00565182 69351
INSAT-3D                
1 39216U 13038B   22307.06352601 -.00000164  00000+0  00000+0 0  9993
2 39216   0.0393  78.4024 0002015 145.4709 283.4050  1.00271917 34042
GPS BIIF-5              
1 39533U 14008A   22306.45388358 -.00000015  00000+0  00000+0 0  9998
2 39533  53.6112 203.2240 0060451 209.3656 150.3490  2.00561145 63154
LUCH 5V                 
1 39727U 14023A   22307.53778747 -.00000275  00000+0  00000+0 0  9993
2 39727   1.8295  76.7287 0002801 163.0539  91.3183  1.00275087549250
GPS BIIF-6              
1 39741U 14026A   22306.23583902 -.00000097  00000+0  00000+0 0  9997
2 39741  56.6198  22.8732 0027666 304.4632  55.3125  2.00578634 62008
GPS BIIF-7              
1 40105U 14045A   22305.82326784  .00000072  00000+0  00000+0 0  9993
2 40105  54.7224 141.3184 0024098 111.9658 248.3544  2.00556498 59533
GSAT0201 (GALILEO 5)    
1 40128U 14050A   22306.19299927 -.00000064  00000+0  00000+0 0  9995
2 40128  50.1881 326.7924 1617591 129.0501 246.5189  1.85519210 53770
GSAT0202 (GALILEO 6)    
1 40129U 14050B   22306.99250527 -.00000068  00000+0  00000+0 0  9991
2 40129  50.2110 325.8248 1614881 129.8914 245.4855  1.85520036 55926
GPS BIIF-8              
1 40294U 14068A   22306.18964453  .00000011  00000+0  00000+0 0  9991
2 40294  55.9251  82.5002 0042529  58.7714 301.6378  2.00550877 58677
GLONASS-K 2             
1 40315U 14075A   22307.61489653 -.00000035  00000+0  00000+0 0  9993
2 40315  63.6714 236.2994 0018617 211.1117 315.8334  2.13101385 61697
GPS BIIF-9              
1 40534U 15013A   22306.33311804 -.00000028  00000+0  00000+0 0  9991
2 40534  53.6232 258.9812 0073000  20.6653 339.6150  2.00573561 55293
GSAT0203 (GALILEO 7)    
1 40544U 15017A   22306.46591070 -.00000099  00000+0  00000+0 0  9993
2 40544  56.8361  17.6053 0004423 238.7967 121.2015  1.70476080 46651
GSAT0204 (GALILEO 8)    
1 40545U 15017B   22304.95921774 -.00000093  00000+0  00000+0 0  9998
2 40545  56.8413  17.6593 0004569 228.3541 131.6508  1.70475555  9672
GPS BIIF-10             
1 40730U 15033A   22306.49067247 -.00000041  00000+0  00000+0 0  9992
2 40730  55.0951 321.1117 0076825   7.6254 352.5280  2.00570874 53465
METEOSAT-11 (MSG-4)     
1 40732U 15034A   22305.68425112 -.00000004  00000+0  00000+0 0  9993
2 40732   0.5921  75.3898 0000293 128.4063  83.9798  1.00281756 26757
GSAT0205 (GALILEO 9)    
1 40889U 15045A   22306.48644489 -.00000025  00000+0  00000+0 0  9990
2 40889  55.5398 258.1501 0004939   1.0690 358.9095  1.70472814 44460
GSAT0206 (GALILEO 10)   
1 40890U 15045B   22306.12060758 -.00000022  00000+0  00000+0 0  9991
2 40890  55.5392 258.1560 0003512 342.7004  17.2668  1.70472893 44481
GPS BIIF-11             
1 41019U 15062A   22306.54157798  .00000009  00000+0  00000+0 0  9995
2 41019  55.9126  82.3320 0082662 217.8795 141.5308  2.00562352 51302
ELEKTRO-L 2             
1 41105U 15074A   22306.90081006 -.00000120  00000+0  00000+0 0  9997
2 41105   3.3318  86.4629 0002584 126.5463 139.0161  1.00271058 25251
GSAT0209 (GALILEO 12)   
1 41174U 15079A   22306.88101666  .00000075  00000+0  00000+0 0  9998
2 41174  55.1942 137.5964 0001915 344.9206  15.1384  1.70474231 42810
GSAT0208 (GALILEO 11)   
1 41175U 15079B   22305.34076209  .00000070  00000+0  00000+0 0  9998
2 41175  55.1915 137.6373 0001409 358.8685   1.1924  1.70474137 42628
GPS BIIF-12             
1 41328U 16007A   22306.62894516  .00000079  00000+0  00000+0 0  9990
2 41328  54.9362 141.9909 0063481 229.6219 129.8878  2.00564264 49314
GSAT0211 (GALILEO 14)   
1 41549U 16030A   22307.21942721 -.00000032  00000+0  00000+0 0  9999
2 41549  55.6844 258.0733 0004743 324.0191  35.9226  1.70472867 40118
GSAT0210 (GALILEO 13)   
1 41550U 16030B   22306.33879112 -.00000024  00000+0  00000+0 0  9997
2 41550  55.6845 258.0989 0004139 295.7983  64.1372  1.70474302 40118
INSAT-3DR               
1 41752U 16054A   22307.48203806 -.00000085  00000+0  00000+0 0  9992
2 41752   0.0732  89.9180 0013371 173.7086  26.6232  1.00271367 22546
GSAT0207 (GALILEO 15)   
1 41859U 16069A   22306.00187099  .00000071  00000+0  00000+0 0  9992
2 41859  54.8548 137.7679 0001667 312.0582  47.9905  1.70472897 36844
GSAT0212 (GALILEO 16)   
1 41860U 16069B   22305.85528197  .00000071  00000+0  00000+0 0  9994
2 41860  54.8517 137.7694 0001701  28.0891 331.9826  1.70472910 37097
GSAT0213 (GALILEO 17)   
1 41861U 16069C   22305.04737141  .00000068  00000+0  00000+0 0  9993
2 41861  54.8543 137.7972 0001604 249.8279 110.2159  1.70473065 36943
GSAT0214 (GALILEO 18)   
1 41862U 16069D   22305.19454706  .00000069  00000+0  00000+0 0  9994
2 41862  54.8526 137.7874 0000717 238.7124 121.3418  1.70472961 37076
GOES 16                 
1 41866U 16071A   22307.51881528 -.00000256  00000+0  00000+0 0  9994
2 41866   0.0434 276.1354 0000622 337.3858 260.8424  1.00271101 21858
GSAT-17                 
1 42815U 17040B   22305.68889067 -.00000264  00000+0  00000+0 0  9997
2 42815   0.0456  75.6653 0006316 165.5718 141.2204  1.00269188 19513
GSAT0215 (GALILEO 19)   
1 43055U 17079A   22305.68429464 -.00000017  00000+0  00000+0 0  9993
2 43055  55.6613 257.9459 0003546 291.3222  68.6211  1.70473594 30428
GSAT0216 (GALILEO 20)   
1 43056U 17079B   22306.56299889 -.00000026  00000+0  00000+0 0  9998
2 43056  55.6614 257.9215 0005223 289.3586  70.5621  1.70473740 30424
GSAT0217 (GALILEO 21)   
1 43057U 17079C   22306.19669316 -.00000022  00000+0  00000+0 0  9990
2 43057  55.6595 257.9311 0004884 300.5366  59.3941  1.70473686 30434
GSAT0218 (GALILEO 22)   
1 43058U 17079D   22306.41672630 -.00000025  00000+0  00000+0 0  9992
2 43058  55.6594 257.9226 0005589 284.5817  75.3342  1.70473707 30431
GOES 17                 
1 43226U 18022A   22306.62042686  .00000090  00000+0  00000+0 0  9994
2 43226   0.0294 280.7236 0000428 276.5479 290.6440  1.00271417 17169
GSAT0221 (GALILEO 25)   
1 43564U 18060A   22306.31551772 -.00000098  00000+0  00000+0 0  9997
2 43564  57.2175  17.4600 0004330 257.2867 102.7071  1.70476017 26612
